{"type": "FeatureCollection", "features": [{"type": "Feature", "properties": {"boro_name": "MANHATTAN"}, "geometry": {"type": "Polygon", "coordinates": [[[-74.017, 40.7], [-74.01, 40.712], [-73.97, 40.724], [-73.95, 40.78], [-73.93, 40.81], [-73.93, 40.82], [-73.94, 40.83], [-73.96, 40.84], [-73.98, 40.85], [-74.02, 40.82], [-74.025, 40.79], [-74.025, 40.75], [-74.02, 40.71], [-74.017, 40.7]]]}}, {"type": "Feature", "properties": {"boro_name": "BROOKLYN"}, "geometry": {"type": "Polygon", "coordinates": [[[-73.99, 40.69], [-73.96, 40.68], [-73.92, 40.65], [-73.91, 40.62], [-73.92, 40.58], [-73.95, 40.57], [-73.97, 40.56], [-74.0, 40.58], [-74.02, 40.6], [-74.04, 40.63], [-74.02, 40.67], [-74.0, 40.69], [-73.99, 40.69]]]}}, {"type": "Feature", "properties": {"boro_name": "BRONX"}, "geometry": {"type": "Polygon", "coordinates": [[[-73.93, 40.82], [-73.92, 40.83], [-73.88, 40.84], [-73.86, 40.85], [-73.84, 40.87], [-73.82, 40.88], [-73.82, 40.89], [-73.85, 40.9], [-73.89, 40.88], [-73.92, 40.86], [-73.93, 40.84], [-73.93, 40.82]]]}}, {"type": "Feature", "properties": {"boro_name": "QUEENS"}, "geometry": {"type": "Polygon", "coordinates": [[[-73.84, 40.71], [-73.82, 40.73], [-73.79, 40.74], [-73.76, 40.75], [-73.74, 40.76], [-73.72, 40.77], [-73.72, 40.78], [-73.74, 40.79], [-73.78, 40.78], [-73.82, 40.76], [-73.84, 40.74], [-73.84, 40.71]]]}}, {"type": "Feature", "properties": {"boro_name": "STATEN ISLAND"}, "geometry": {"type": "Polygon", "coordinates": [[[-74.18, 40.56], [-74.17, 40.58], [-74.14, 40.6], [-74.11, 40.61], [-74.09, 40.62], [-74.07, 40.63], [-74.08, 40.65], [-74.11, 40.65], [-74.15, 40.63], [-74.18, 40.59], [-74.18, 40.56]]]}}]}